[{"OBJECT_NAME":"PUJIANG 2 (PJ-2)","OBJECT_ID":"2022-031B","EPOCH":"2026-03-09T23:59:30.994656","MEAN_MOTION":14.94193409,"ECCENTRICITY":0.00120718,"INCLINATION":97.86,"RA_OF_ASC_NODE":254.4415,"ARG_OF_PERICENTER":164.7982,"MEAN_ANOMALY":195.3603,"EPHEMERIS_TYPE":0,"CLASSIFICATION_TYPE":"U","NORAD_CAT_ID":52151,"ELEMENT_SET_NO":999,"REV_AT_EPOCH":21498,"BSTAR":0.00020001428,"MEAN_MOTION_DOT":2.087e-5,"MEAN_MOTION_DDOT":0},{"OBJECT_NAME":"NOAA 16 DEB","OBJECT_ID":"2000-055TB","EPOCH":"2026-03-07T11:57:37.788192","MEAN_MOTION":14.89072525,"ECCENTRICITY":0.00117174,"INCLINATION":98.9653,"RA_OF_ASC_NODE":261.806,"ARG_OF_PERICENTER":273.1249,"MEAN_ANOMALY":86.8623,"EPHEMERIS_TYPE":0,"CLASSIFICATION_TYPE":"U","NORAD_CAT_ID":42407,"ELEMENT_SET_NO":999,"REV_AT_EPOCH":51543,"BSTAR":0.010983059,"MEAN_MOTION_DOT":0.00105118,"MEAN_MOTION_DDOT":0}]
